
# Worst residual: 143.97 km
# MJD 59389.000000 (2021 Jun 24  0:00)
A10pgty = A10pgtz = ZTF0Dxq
1 89977U 00000AAW 21175.49919926  .00000000  00000-0  00000-0 0 10874
2 89977 005.9893 027.5594 7527293 068.8721 083.6215 01.03475645    05

# Worst residual: 158.78 km
# MJD 59390.000000 (2021 Jun 25  0:00)
A10pgty = A10pgtz = ZTF0Dxq
1 89977U 00000AAW 21176.49919926  .00000000  00000-0  00000-0 0 10875
2 89977 006.0739 029.5397 7528796 067.4993 094.9102 01.03433096    08

# Worst residual: 168.38 km
# MJD 59391.000000 (2021 Jun 26  0:00)
A10pgty = A10pgtz = ZTF0Dxq
1 89977U 00000AAW 21177.49919926  .00000000  00000-0  00000-0 0 10876
2 89977 006.1767 031.3740 7529168 066.2728 106.1992 01.03390594    08

# Worst residual: 175.18 km
# MJD 59392.000000 (2021 Jun 27  0:00)
A10pgty = A10pgtz = ZTF0Dxq
1 89977U 00000AAW 21178.49919926  .00000000  00000-0  00000-0 0 10877
2 89977 006.2715 033.2723 7528548 064.9904 117.4700 01.03355356    05

# Worst residual: 174.57 km
# MJD 59393.000000 (2021 Jun 28  0:00)
A10pgty = A10pgtz = ZTF0Dxq
1 89977U 00000AAW 21179.49919926  .00000000  00000-0  00000-0 0 10878
2 89977 006.3714 035.0289 7526516 063.8408 128.7406 01.03316399    04

# Worst residual: 155.78 km
# MJD 59394.000000 (2021 Jun 29  0:00)
A10pgty = A10pgtz = ZTF0Dxq
1 89977U 00000AAW 21180.49919926  .00000000  00000-0  00000-0 0 10870
2 89977 006.4839 036.8134 7523962 062.6513 140.0430 01.03275066    06

# Worst residual: 122.33 km
# MJD 59395.000000 (2021 Jun 30  0:00)
A10pgty = A10pgtz = ZTF0Dxq
1 89977U 00000AAW 21181.49919926  .00000000  00000-0  00000-0 0 10871
2 89977 006.5819 038.4011 7521931 061.6580 151.3397 01.03248304    06

# Worst residual: 99.73 km
# MJD 59396.000000 (2021 Jul  1  0:00)
A10pgty = A10pgtz = ZTF0Dxq
1 89977U 00000AAW 21182.49918769  .00000000  00000-0  00000-0 0 10876
2 89977 006.6889 039.9605 7519332 060.6992 162.6164 01.03226474    08

# Worst residual: 82.78 km
# MJD 59397.000000 (2021 Jul  2  0:00)
A10pgty = A10pgtz = ZTF0Dxq
1 89977U 00000AAW 21183.49918769  .00000000  00000-0  00000-0 0 10877
2 89977 006.8007 041.5109 7514674 059.7469 173.8971 01.03198776    05

# Worst residual: 53.06 km
# MJD 59398.000000 (2021 Jul  3  0:00)
A10pgty = A10pgtz = ZTF0Dxq
1 89977U 00000AAW 21184.49918769  .00000000  00000-0  00000-0 0 10878
2 89977 006.9128 043.0106 7508747 058.8357 185.1995 01.03165822    02

# Worst residual: 52.77 km
# MJD 59399.000000 (2021 Jul  4  0:00)
A10pgty = A10pgtz = ZTF0Dxq
1 89977U 00000AAW 21185.49918769  .00000000  00000-0  00000-0 0 10879
2 89977 007.0175 044.3450 7504587 058.0835 196.5154 01.03148873    03

# Worst residual: 52.20 km
# MJD 59400.000000 (2021 Jul  5  0:00)
A10pgty = A10pgtz = ZTF0Dxq
1 89977U 00000AAW 21186.49918769  .00000000  00000-0  00000-0 0 10870
2 89977 007.1227 045.6151 7501358 057.3971 207.8298 01.03151794    01

# Worst residual: 55.61 km
# MJD 59401.000000 (2021 Jul  6  0:00)
A10pgty = A10pgtz = ZTF0Dxq
1 89977U 00000AAW 21187.49918769  .00000000  00000-0  00000-0 0 10871
2 89977 007.2356 046.9172 7499966 056.6800 219.1498 01.03176214    08

# Worst residual: 103.61 km
# MJD 59402.000000 (2021 Jul  7  0:00)
A10pgty = A10pgtz = ZTF0Dxq
1 89977U 00000AAW 21188.49918769  .00000000  00000-0  00000-0 0 10872
2 89977 007.3513 048.2209 7498538 055.9726 230.4458 01.03202364    01

# Worst residual: 138.57 km
# MJD 59403.000000 (2021 Jul  8  0:00)
A10pgty = A10pgtz = ZTF0Dxq
1 89977U 00000AAW 21189.49918769  .00000000  00000-0  00000-0 0 10873
2 89977 007.4686 049.4763 7495899 055.3235 241.7306 01.03216010    07

# Worst residual: 169.87 km
# MJD 59404.000000 (2021 Jul  9  0:00)
A10pgty = A10pgtz = ZTF0Dxq
1 89977U 00000AAW 21190.49918769  .00000000  00000-0  00000-0 0 10875
2 89977 007.5779 050.6122 7490894 054.7923 253.0062 01.03252068    09

# Worst residual: 185.51 km
# MJD 59405.000000 (2021 Jul 10  0:00)
A10pgty = A10pgtz = ZTF0Dxq
1 89977U 00000AAW 21191.49918769  .00000000  00000-0  00000-0 0 10876
2 89977 007.6908 051.7636 7486552 054.2343 264.3233 01.03278987    06

# Worst residual: 180.87 km
# MJD 59406.000000 (2021 Jul 11  0:00)
A10pgty = A10pgtz = ZTF0Dxq
1 89977U 00000AAW 21192.49918769  .00000000  00000-0  00000-0 0 10877
2 89977 007.8030 052.8572 7482105 053.7504 275.6082 01.03317190    05

# Worst residual: 177.16 km
# MJD 59407.000000 (2021 Jul 12  0:00)
A10pgty = A10pgtz = ZTF0Dxq
1 89977U 00000AAW 21193.49918769  .00000000  00000-0  00000-0 0 10878
2 89977 007.9128 053.8876 7475968 053.3364 286.8796 01.03354007    05

# Worst residual: 156.89 km
# MJD 59408.000000 (2021 Jul 13  0:00)
A10pgty = A10pgtz = ZTF0Dxq
1 89977U 00000AAW 21194.49918769  .00000000  00000-0  00000-0 0 10879
2 89977 008.0220 054.9022 7469311 052.9340 298.1862 01.03403041    02

# Worst residual: 153.66 km
# MJD 59409.000000 (2021 Jul 14  0:00)
A10pgty = A10pgtz = ZTF0Dxq
1 89977U 00000AAW 21195.49918769  .00000000  00000-0  00000-0 0 10870
2 89977 008.1277 055.8166 7460769 052.6300 309.4946 01.03430002    01

# Worst residual: 165.23 km
# MJD 59410.000000 (2021 Jul 15  0:00)
A10pgty = A10pgtz = ZTF0Dxq
1 89977U 00000AAW 21196.49918769  .00000000  00000-0  00000-0 0 10871
2 89977 008.2400 056.7752 7452686 052.2821 320.7857 01.03489136    03

# Worst residual: 167.94 km
# MJD 59411.000000 (2021 Jul 16  0:00)
A10pgty = A10pgtz = ZTF0Dxq
1 89977U 00000AAW 21197.49918769  .00000000  00000-0  00000-0 0 10872
2 89977 008.3456 057.6546 7443011 052.0239 332.0864 01.03527828    04

# Worst residual: 169.20 km
# MJD 59412.000000 (2021 Jul 17  0:00)
A10pgty = A10pgtz = ZTF0Dxq
1 89977U 00000AAW 21198.49918769  .00000000  00000-0  00000-0 0 10873
2 89977 008.4491 058.4853 7431585 051.7867 343.4367 01.03580050    00

# Worst residual: 157.99 km
# MJD 59413.000000 (2021 Jul 18  0:00)
A10pgty = A10pgtz = ZTF0Dxq
1 89977U 00000AAW 21199.49918769  .00000000  00000-0  00000-0 0 10874
2 89977 008.5597 059.2960 7420982 051.5770 354.7870 01.03611416    01

# Worst residual: 145.04 km
# MJD 59414.000000 (2021 Jul 19  0:00)
A10pgty = A10pgtz = ZTF0Dxq
1 89977U 00000AAW 21200.49918769  .00000000  00000-0  00000-0 0 10877
2 89977 008.6569 060.0334 7410848 051.4416 006.1243 01.03653719    06

# Worst residual: 131.72 km
# MJD 59415.000000 (2021 Jul 20  0:00)
A10pgty = A10pgtz = ZTF0Dxq
1 89977U 00000AAW 21201.49918769  .00000000  00000-0  00000-0 0 10878
2 89977 008.7534 060.8274 7398522 051.2413 017.4924 01.03679081    00

# Worst residual: 112.17 km
# MJD 59416.000000 (2021 Jul 21  0:00)
A10pgty = A10pgtz = ZTF0Dxq
1 89977U 00000AAW 21202.49918769  .00000000  00000-0  00000-0 0 10879
2 89977 008.8519 061.4983 7388592 051.1767 028.8501 01.03676322    07

# Worst residual: 115.10 km
# MJD 59417.000000 (2021 Jul 22  0:00)
A10pgty = A10pgtz = ZTF0Dxq
1 89977U 00000AAW 21203.49918769  .00000000  00000-0  00000-0 0 10870
2 89977 008.9496 062.2291 7377207 051.0638 040.1759 01.03668130    00
